CCSDS_OMM_VERS = 2.0
CREATION_DATE  = 
ORIGINATOR     = 

OBJECT_NAME    = COSMOS 2228
OBJECT_ID      = 1992-094A
CENTER_NAME    = EARTH
REF_FRAME      = TEME
TIME_SYSTEM    = UTC
MEAN_ELEMENT_THEORY = SGP/SGP4

EPOCH          = 2025-11-26T21:53:26.595168
MEAN_MOTION    = 14.96619455
ECCENTRICITY   = .00164136
INCLINATION    = 82.5177
RA_OF_ASC_NODE = 335.6794
ARG_OF_PERICENTER = 289.9866
MEAN_ANOMALY   = 69.9588

EPHEMERIS_TYPE = 0
CLASSIFICATION_TYPE = U
NORAD_CAT_ID   = 22286
ELEMENT_SET_NO = 999
REV_AT_EPOCH   = 76068
BSTAR          = .25222952E-3
MEAN_MOTION_DOT = .2906E-4
MEAN_MOTION_DDOT = 0

CCSDS_OMM_VERS = 2.0
CREATION_DATE  = 
ORIGINATOR     = 

OBJECT_NAME    = SL-16 R/B
OBJECT_ID      = 1993-016B
CENTER_NAME    = EARTH
REF_FRAME      = TEME
TIME_SYSTEM    = UTC
MEAN_ELEMENT_THEORY = SGP/SGP4

EPOCH          = 2025-11-26T19:15:42.804000
MEAN_MOTION    = 14.15289040
ECCENTRICITY   = .00081696
INCLINATION    = 71.0090
RA_OF_ASC_NODE = 71.2741
ARG_OF_PERICENTER = 127.6684
MEAN_ANOMALY   = 232.5181

EPHEMERIS_TYPE = 0
CLASSIFICATION_TYPE = U
NORAD_CAT_ID   = 22566
ELEMENT_SET_NO = 999
REV_AT_EPOCH   = 68761
BSTAR          = .41567845E-4
MEAN_MOTION_DOT = .33E-6
MEAN_MOTION_DDOT = 0

CCSDS_OMM_VERS = 2.0
CREATION_DATE  = 
ORIGINATOR     = 

OBJECT_NAME    = COSMOS 2242
OBJECT_ID      = 1993-024A
CENTER_NAME    = EARTH
REF_FRAME      = TEME
TIME_SYSTEM    = UTC
MEAN_ELEMENT_THEORY = SGP/SGP4

EPOCH          = 2025-11-26T12:23:58.040736
MEAN_MOTION    = 14.96008229
ECCENTRICITY   = .00148923
INCLINATION    = 82.5200
RA_OF_ASC_NODE = 5.3503
ARG_OF_PERICENTER = 294.4432
MEAN_ANOMALY   = 65.5236

EPHEMERIS_TYPE = 0
CLASSIFICATION_TYPE = U
NORAD_CAT_ID   = 22626
ELEMENT_SET_NO = 999
REV_AT_EPOCH   = 76496
BSTAR          = .25913088E-3
MEAN_MOTION_DOT = .2937E-4
MEAN_MOTION_DDOT = 0

CCSDS_OMM_VERS = 2.0
CREATION_DATE  = 
ORIGINATOR     = 

OBJECT_NAME    = SL-16 R/B
OBJECT_ID      = 1993-059B
CENTER_NAME    = EARTH
REF_FRAME      = TEME
TIME_SYSTEM    = UTC
MEAN_ELEMENT_THEORY = SGP/SGP4

EPOCH          = 2025-11-26T20:25:38.889984
MEAN_MOTION    = 14.17207940
ECCENTRICITY   = .00170211
INCLINATION    = 70.9897
RA_OF_ASC_NODE = 227.9894
ARG_OF_PERICENTER = 359.1476
MEAN_ANOMALY   = 0.9616

EPHEMERIS_TYPE = 0
CLASSIFICATION_TYPE = U
NORAD_CAT_ID   = 22803
ELEMENT_SET_NO = 999
REV_AT_EPOCH   = 66496
BSTAR          = -.24238358E-4
MEAN_MOTION_DOT = -.97E-6
MEAN_MOTION_DDOT = 0

CCSDS_OMM_VERS = 2.0
CREATION_DATE  = 
ORIGINATOR     = 

OBJECT_NAME    = ARIANE 40 R/B
OBJECT_ID      = 1993-061H
CENTER_NAME    = EARTH
REF_FRAME      = TEME
TIME_SYSTEM    = UTC
MEAN_ELEMENT_THEORY = SGP/SGP4

EPOCH          = 2025-11-26T18:23:00.396384
MEAN_MOTION    = 14.32785828
ECCENTRICITY   = .00099968
INCLINATION    = 98.5095
RA_OF_ASC_NODE = 36.5853
ARG_OF_PERICENTER = 224.3278
MEAN_ANOMALY   = 135.7107

EPHEMERIS_TYPE = 0
CLASSIFICATION_TYPE = U
NORAD_CAT_ID   = 22830
ELEMENT_SET_NO = 999
REV_AT_EPOCH   = 67936
BSTAR          = .12171438E-3
MEAN_MOTION_DOT = .288E-5
MEAN_MOTION_DDOT = 0

CCSDS_OMM_VERS = 2.0
CREATION_DATE  = 
ORIGINATOR     = 

OBJECT_NAME    = COSMOS 2278
OBJECT_ID      = 1994-023A
CENTER_NAME    = EARTH
REF_FRAME      = TEME
TIME_SYSTEM    = UTC
MEAN_ELEMENT_THEORY = SGP/SGP4

EPOCH          = 2025-11-26T14:56:46.501152
MEAN_MOTION    = 14.14349439
ECCENTRICITY   = .00092745
INCLINATION    = 71.0559
RA_OF_ASC_NODE = 30.7295
ARG_OF_PERICENTER = 201.7778
MEAN_ANOMALY   = 158.2952

EPHEMERIS_TYPE = 0
CLASSIFICATION_TYPE = U
NORAD_CAT_ID   = 23087
ELEMENT_SET_NO = 999
REV_AT_EPOCH   = 63023
BSTAR          = .10670887E-3
MEAN_MOTION_DOT = .157E-5
MEAN_MOTION_DDOT = 0

CCSDS_OMM_VERS = 2.0
CREATION_DATE  = 
ORIGINATOR     = 

OBJECT_NAME    = SL-16 R/B
OBJECT_ID      = 1994-023B
CENTER_NAME    = EARTH
REF_FRAME      = TEME
TIME_SYSTEM    = UTC
MEAN_ELEMENT_THEORY = SGP/SGP4

EPOCH          = 2025-11-26T13:47:52.999872
MEAN_MOTION    = 14.14992798
ECCENTRICITY   = .0001105
INCLINATION    = 70.9994
RA_OF_ASC_NODE = 287.4319
ARG_OF_PERICENTER = 108.5922
MEAN_ANOMALY   = 251.5320

EPHEMERIS_TYPE = 0
CLASSIFICATION_TYPE = U
NORAD_CAT_ID   = 23088
ELEMENT_SET_NO = 999
REV_AT_EPOCH   = 63150
BSTAR          = .14745239E-3
MEAN_MOTION_DOT = .238E-5
MEAN_MOTION_DDOT = 0

CCSDS_OMM_VERS = 2.0
CREATION_DATE  = 
ORIGINATOR     = 

OBJECT_NAME    = SL-16 R/B
OBJECT_ID      = 1994-074B
CENTER_NAME    = EARTH
REF_FRAME      = TEME
TIME_SYSTEM    = UTC
MEAN_ELEMENT_THEORY = SGP/SGP4

EPOCH          = 2025-11-26T15:40:44.520384
MEAN_MOTION    = 14.79262143
ECCENTRICITY   = .00063258
INCLINATION    = 97.7220
RA_OF_ASC_NODE = 0.5960
ARG_OF_PERICENTER = 184.5052
MEAN_ANOMALY   = 287.7256

EPHEMERIS_TYPE = 0
CLASSIFICATION_TYPE = U
NORAD_CAT_ID   = 23343
ELEMENT_SET_NO = 999
REV_AT_EPOCH   = 67201
BSTAR          = .91113433E-4
MEAN_MOTION_DOT = .628E-5
MEAN_MOTION_DDOT = 0

CCSDS_OMM_VERS = 2.0
CREATION_DATE  = 
ORIGINATOR     = 

OBJECT_NAME    = SL-16 R/B
OBJECT_ID      = 1994-077B
CENTER_NAME    = EARTH
REF_FRAME      = TEME
TIME_SYSTEM    = UTC
MEAN_ELEMENT_THEORY = SGP/SGP4

EPOCH          = 2025-11-26T21:06:17.328672
MEAN_MOTION    = 14.15546863
ECCENTRICITY   = .00045737
INCLINATION    = 70.9818
RA_OF_ASC_NODE = 208.7791
ARG_OF_PERICENTER = 296.6484
MEAN_ANOMALY   = 63.4170

EPHEMERIS_TYPE = 0
CLASSIFICATION_TYPE = U
NORAD_CAT_ID   = 23405
ELEMENT_SET_NO = 999
REV_AT_EPOCH   = 60168
BSTAR          = -.99387469E-4
MEAN_MOTION_DOT = -.242E-5
MEAN_MOTION_DDOT = 0

CCSDS_OMM_VERS = 2.0
CREATION_DATE  = 
ORIGINATOR     = 

OBJECT_NAME    = ARIANE 40+ R/B
OBJECT_ID      = 1995-021B
CENTER_NAME    = EARTH
REF_FRAME      = TEME
TIME_SYSTEM    = UTC
MEAN_ELEMENT_THEORY = SGP/SGP4

EPOCH          = 2025-11-26T19:57:25.710048
MEAN_MOTION    = 14.39676993
ECCENTRICITY   = .00079104
INCLINATION    = 98.4669
RA_OF_ASC_NODE = 38.6112
ARG_OF_PERICENTER = 91.4812
MEAN_ANOMALY   = 23.5775

EPHEMERIS_TYPE = 0
CLASSIFICATION_TYPE = U
NORAD_CAT_ID   = 23561
ELEMENT_SET_NO = 999
REV_AT_EPOCH   = 60444
BSTAR          = .13740018E-3
MEAN_MOTION_DOT = .386E-5
MEAN_MOTION_DDOT = 0

CCSDS_OMM_VERS = 2.0
CREATION_DATE  = 
ORIGINATOR     = 

OBJECT_NAME    = SL-16 R/B
OBJECT_ID      = 1995-058B
CENTER_NAME    = EARTH
REF_FRAME      = TEME
TIME_SYSTEM    = UTC
MEAN_ELEMENT_THEORY = SGP/SGP4

EPOCH          = 2025-11-26T14:21:59.242176
MEAN_MOTION    = 14.15474803
ECCENTRICITY   = .00149225
INCLINATION    = 71.0225
RA_OF_ASC_NODE = 36.6928
ARG_OF_PERICENTER = 275.6295
MEAN_ANOMALY   = 84.3126

EPHEMERIS_TYPE = 0
CLASSIFICATION_TYPE = U
NORAD_CAT_ID   = 23705
ELEMENT_SET_NO = 999
REV_AT_EPOCH   = 55326
BSTAR          = .47577286E-4
MEAN_MOTION_DOT = .45E-6
MEAN_MOTION_DDOT = 0

CCSDS_OMM_VERS = 2.0
CREATION_DATE  = 
ORIGINATOR     = 

OBJECT_NAME    = SL-16 R/B
OBJECT_ID      = 1996-051B
CENTER_NAME    = EARTH
REF_FRAME      = TEME
TIME_SYSTEM    = UTC
MEAN_ELEMENT_THEORY = SGP/SGP4

EPOCH          = 2025-11-26T14:59:12.215616
MEAN_MOTION    = 14.12394294
ECCENTRICITY   = .00188835
INCLINATION    = 70.7608
RA_OF_ASC_NODE = 33.3949
ARG_OF_PERICENTER = 281.3017
MEAN_ANOMALY   = 78.5981

EPHEMERIS_TYPE = 0
CLASSIFICATION_TYPE = U
NORAD_CAT_ID   = 24298
ELEMENT_SET_NO = 999
REV_AT_EPOCH   = 50709
BSTAR          = .1923267E-4
MEAN_MOTION_DOT = -.14E-6
MEAN_MOTION_DDOT = 0

